NORAD_CAT_ID,OBJECT_NAME,OBJECT_TYPE,EPOCH,MEAN_MOTION,ECCENTRICITY,INCLINATION,RA_OF_ASC_NODE,ARG_OF_PERICENTER,MEAN_ANOMALY,BSTAR,MEAN_MOTION_DOT,MEAN_MOTION_DDOT,TLE_LINE0,TLE_LINE1,TLE_LINE2,SEMIMAJOR_AXIS,PERIOD,APOGEE,PERIGEE,DECAYED
53901.0,STARLINK-5024,PAYLOAD,2023-10-14 18:40:58,15.08839869,0.0001973,53.2158,300.5272,90.0102,270.1117,0.00030051,4.498e-05,0.0,0 STARLINK-5024,1 53901U 22119R   23287.77845457  .00004498  00000-0  30051-3 0  9999,2 53901  53.2158 300.5272 0001973  90.0102 270.1117 15.08839869 58880,6917.881,95.438,541.111,538.381,0.0
53901.0,STARLINK-5024,PAYLOAD,2023-10-15 07:24:03,15.08829846,0.0001752,53.2165,298.1482,98.5557,261.5634,-9.247e-05,-1.759e-05,0.0,0 STARLINK-5024,1 53901U 22119R   23288.30837875 -.00001759  00000-0 -92470-4 0  9997,2 53901  53.2165 298.1482 0001752  98.5557 261.5634 15.08829846 58966,6917.911,95.438,540.988,538.564,0.0
53901.0,STARLINK-5024,PAYLOAD,2023-10-15 23:17:55,15.08839173,0.0001669,53.2157,295.1749,97.2881,262.8301,0.00041533,6.328e-05,0.0,0 STARLINK-5024,1 53901U 22119R   23288.97078159  .00006328  00000-0  41533-3 0  9990,2 53901  53.2157 295.1749 0001669  97.2881 262.8301 15.08839173 59064,6917.883,95.438,540.903,538.593,0.0
53901.0,STARLINK-5024,PAYLOAD,2023-10-16 10:25:37,15.08855042,0.0001606,53.2159,293.0944,94.479,265.6386,0.00079794,0.00012439,0.0,0 STARLINK-5024,1 53901U 22119R   23289.43445826  .00012439  00000-0  79794-3 0  9991,2 53901  53.2159 293.0944 0001606  94.4790 265.6386 15.08855042 59550,6917.834,95.437,540.81,538.588,0.0
53901.0,STARLINK-5024,PAYLOAD,2023-10-17 10:16:23,15.08858476,0.0001537,53.2155,288.6313,95.6498,264.467,0.00052578,8.094e-05,0.0,0 STARLINK-5024,1 53901U 22119R   23290.42805415  .00008094  00000-0  52578-3 0  9999,2 53901  53.2155 288.6313 0001537  95.6498 264.4670 15.08858476 59284,6917.824,95.436,540.752,538.626,0.0
53901.0,STARLINK-5024,PAYLOAD,2023-10-17 16:37:56,15.08850598,0.0001507,53.2159,287.4392,89.8894,270.2271,0.00048552,7.45e-05,0.0,0 STARLINK-5024,1 53901U 22119R   23290.69301461  .00007450  00000-0  48552-3 0  9992,2 53901  53.2159 287.4392 0001507  89.8894 270.2271 15.08850598 59328,6917.848,95.437,540.756,538.67,0.0
53901.0,STARLINK-5024,PAYLOAD,2023-10-18 00:34:52,15.08841424,0.0002025,53.2162,285.9564,102.0892,258.0327,0.00034653,5.231e-05,0.0,0 STARLINK-5024,1 53901U 22119R   23291.02421790  .00005231  00000-0  34653-3 0  9990,2 53901  53.2162 285.9564 0002025 102.0892 258.0327 15.08841424 59377,6917.876,95.437,541.142,538.34,0.0
53901.0,STARLINK-5024,PAYLOAD,2023-10-18 16:28:43,15.08841445,0.0001508,53.2163,282.983,95.3957,264.7207,0.00034828,5.259e-05,0.0,0 STARLINK-5024,1 53901U 22119R   23291.68661956  .00005259  00000-0  34828-3 0  9996,2 53901  53.2163 282.9830 0001508  95.3957 264.7207 15.08841445 59477,6917.876,95.437,540.784,538.698,0.0
53901.0,STARLINK-5024,PAYLOAD,2023-10-19 08:22:35,15.08853211,0.0001611,53.2164,280.0095,96.5879,263.5297,0.00049584,7.615e-05,0.0,0 STARLINK-5024,1 53901U 22119R   23292.34901711  .00007615  00000-0  49584-3 0  9999,2 53901  53.2164 280.0095 0001611  96.5879 263.5297 15.08853211 59998,6917.84,95.437,540.819,538.591,0.0
53901.0,STARLINK-5024,PAYLOAD,2023-10-19 22:41:03,15.08845408,0.0001882,53.2176,277.3334,113.5015,246.6175,0.00030127,4.511e-05,0.0,0 STARLINK-5024,1 53901U 22119R   23292.94517923  .00004511  00000-0  30127-3 0  9998,2 53901  53.2176 277.3334 0001882 113.5015 246.6175 15.08845408 60086,6917.864,95.437,541.031,538.427,0.0
53901.0,STARLINK-5024,PAYLOAD,2023-10-20 08:13:22,15.08849472,0.0001679,53.2156,275.5476,101.4309,258.6872,0.00027691,4.123e-05,0.0,0 STARLINK-5024,1 53901U 22119R   23293.34261725  .00004123  00000-0  27691-3 0  9990,2 53901  53.2156 275.5476 0001679 101.4309 258.6872 15.08849472 60146,6917.851,95.437,540.878,538.555,0.0
53901.0,STARLINK-5024,PAYLOAD,2023-10-20 22:31:51,15.08834553,0.0001607,53.2176,272.8726,94.3671,265.7505,4.8177e-06,-2.11e-06,0.0,0 STARLINK-5024,1 53901U 22119R   23293.93878546 -.00000211  00000-0  48177-5 0  9999,2 53901  53.2176 272.8726 0001607  94.3671 265.7505 15.08834553 60235,6917.897,95.438,540.874,538.65,0.0
53901.0,STARLINK-5024,PAYLOAD,2023-10-21 08:04:09,15.08841357,0.0001829,53.2167,271.0867,109.7881,250.3309,0.00022485,3.292e-05,0.0,0 STARLINK-5024,1 53901U 22119R   23294.33622354  .00003292  00000-0  22485-3 0  9991,2 53901  53.2167 271.0867 0001829 109.7881 250.3309 15.08841357 60290,6917.876,95.437,541.007,538.476,0.0
53901.0,STARLINK-5024,PAYLOAD,2023-10-21 22:22:37,15.08848573,0.0001805,53.2169,268.4107,108.58,251.5388,0.00035897,5.431e-05,0.0,0 STARLINK-5024,1 53901U 22119R   23294.93238225  .00005431  00000-0  35897-3 0  9995,2 53901  53.2169 268.4107 0001805 108.5800 251.5388 15.08848573 60388,6917.854,95.437,540.968,538.471,0.0
53901.0,STARLINK-5024,PAYLOAD,2023-10-22 07:54:56,15.08864523,0.0001735,53.2155,266.6262,98.6087,261.5101,0.00076789,0.00011962,0.0,0 STARLINK-5024,1 53901U 22119R   23295.32981723  .00011962  00000-0  76789-3 0  9998,2 53901  53.2155 266.6262 0001735  98.6087 261.5101 15.08864523 60021,6917.805,95.436,540.871,538.47,0.0
53901.0,STARLINK-5024,PAYLOAD,2023-10-22 15:51:51,15.08849883,0.0001331,53.2168,265.1384,114.5721,245.541,4.1797e-05,3.78e-06,0.0,0 STARLINK-5024,1 53901U 22119R   23295.66101528  .00000378  00000-0  41797-4 0  9993,2 53901  53.2168 265.1384 0001331 114.5721 245.5410 15.08849883 60071,6917.85,95.437,540.636,538.794,0.0
53901.0,STARLINK-5024,PAYLOAD,2023-10-23 04:34:57,15.08846897,0.0001831,53.2172,262.762,105.4622,254.6573,0.00011629,1.563e-05,0.0,0 STARLINK-5024,1 53901U 22119R   23296.19093784  .00001563  00000-0  11629-3 0  9993,2 53901  53.2172 262.7620 0001831 105.4622 254.6573 15.08846897 60158,6917.859,95.437,540.991,538.458,0.0
53901.0,STARLINK-5024,PAYLOAD,2023-10-24 04:25:44,15.08839789,0.0001466,53.215,258.2992,97.979,262.1368,-6.8607e-05,-1.38e-05,0.0,0 STARLINK-5024,1 53901U 22119R   23297.18454316 -.00001380  00000-0 -68607-4 0  9993,2 53901  53.2150 258.2992 0001466  97.9790 262.1368 15.08839789 60306,6917.881,95.438,540.76,538.732,0.0
53901.0,STARLINK-5024,PAYLOAD,2023-10-24 13:58:03,15.08839706,0.0001488,53.2156,256.5173,99.0758,261.0403,-5.7539e-05,-1.204e-05,0.0,0 STARLINK-5024,1 53901U 22119R   23297.58198416 -.00001204  00000-0 -57539-4 0  9990,2 53901  53.2156 256.5173 0001488  99.0758 261.0403 15.08839706 60784,6917.881,95.438,540.776,538.717,0.0
53901.0,STARLINK-5024,PAYLOAD,2023-10-25 04:16:31,15.08852855,0.0001463,53.2166,253.8407,100.0012,260.1145,0.0003563,5.389e-05,0.0,0 STARLINK-5024,1 53901U 22119R   23298.17813826  .00005389  00000-0  35630-3 0  9998,2 53901  53.2166 253.8407 0001463 100.0012 260.1145 15.08852855 60451,6917.841,95.437,540.718,538.694,0.0
53901.0,STARLINK-5024,PAYLOAD,2023-10-26 02:31:55,15.08841251,0.0001332,53.2158,249.6794,98.2304,261.8839,0.00014898,2.084e-05,0.0,0 STARLINK-5024,1 53901U 22119R   23299.10550573  .00002084  00000-0  14898-3 0  9991,2 53901  53.2158 249.6794 0001332  98.2304 261.8839 15.08841251 60592,6917.877,95.437,540.663,538.82,0.0
53901.0,STARLINK-5024,PAYLOAD,2023-10-26 04:07:18,15.08840871,0.00014,53.2161,249.3798,92.3618,267.7535,0.00012618,1.721e-05,0.0,0 STARLINK-5024,1 53901U 22119R   23299.17174607  .00001721  00000-0  12618-3 0  9993,2 53901  53.2161 249.3798 0001400  92.3618 267.7535 15.08840871 61020,6917.878,95.437,540.711,538.774,0.0
53901.0,STARLINK-5024,PAYLOAD,2023-10-27 03:58:05,15.08852644,0.0001457,53.2158,244.9197,92.4175,267.6984,7.5692e-05,9.17e-06,0.0,0 STARLINK-5024,1 53901U 22119R   23300.16534043  .00000917  00000-0  75692-4 0  9997,2 53901  53.2158 244.9197 0001457  92.4175 267.6984 15.08852644 60758,6917.842,95.437,540.715,538.699,0.0
53901.0,STARLINK-5024,PAYLOAD,2023-10-27 13:30:24,15.0884603,0.0001666,53.2161,243.1344,78.7986,281.3193,0.0001625,2.3e-05,0.0,0 STARLINK-5024,1 53901U 22119R   23300.56278342  .00002300  00000-0  16250-3 0  9990,2 53901  53.2161 243.1344 0001666  78.7986 281.3193 15.08846030 61237,6917.862,95.437,540.879,538.574,0.0
53901.0,STARLINK-5024,PAYLOAD,2023-10-27 19:51:57,15.08839719,0.0002286,53.2159,241.9468,82.966,277.1592,0.00013568,1.872e-05,0.0,0 STARLINK-5024,1 53901U 22119R   23300.82774896  .00001872  00000-0  13568-3 0  9996,2 53901  53.2159 241.9468 0002286  82.9660 277.1592 15.08839719 60851,6917.881,95.438,541.328,538.165,0.0
53901.0,STARLINK-5024,PAYLOAD,2023-10-28 00:38:07,15.08829387,0.0001522,53.2161,241.0545,85.7937,274.3229,-7.1179e-05,-1.42e-05,0.0,0 STARLINK-5024,1 53901U 22119R   23301.02647168 -.00001420  00000-0 -71179-4 0  9994,2 53901  53.2161 241.0545 0001522  85.7937 274.3229 15.08829387 60880,6917.913,95.438,540.831,538.725,0.0
53901.0,STARLINK-5024,PAYLOAD,2023-10-28 13:21:12,15.08832962,0.0001532,53.2166,238.6744,80.354,279.7626,4.3149e-05,3.99e-06,0.0,0 STARLINK-5024,1 53901U 22119R   23301.55639398  .00000399  00000-0  43149-4 0  9996,2 53901  53.2166 238.6744 0001532  80.3540 279.7626 15.08832962 61389,6917.902,95.438,540.827,538.707,0.0
53901.0,STARLINK-5024,PAYLOAD,2023-10-29 02:04:17,15.08835135,0.0001237,53.2169,236.2951,75.6854,284.4275,4.5961e-05,4.44e-06,0.0,0 STARLINK-5024,1 53901U 22119R   23302.08631479  .00000444  00000-0  45961-4 0  9992,2 53901  53.2169 236.2951 0001237  75.6854 284.4275 15.08835135 61044,6917.895,95.438,540.616,538.905,0.0
53901.0,STARLINK-5024,PAYLOAD,2023-10-29 13:11:59,15.08842548,0.0001752,53.2168,234.2127,90.8237,269.2956,0.00023052,3.383e-05,0.0,0 STARLINK-5024,1 53901U 22119R   23302.54999400  .00003383  00000-0  23052-3 0  9995,2 53901  53.2168 234.2127 0001752  90.8237 269.2956 15.08842548 61539,6917.873,95.437,540.95,538.526,0.0
53901.0,STARLINK-5024,PAYLOAD,2023-10-29 22:44:18,15.08840653,0.000178,53.2169,232.431,86.3265,273.793,0.00026978,4.008e-05,0.0,0 STARLINK-5024,1 53901U 22119R   23302.94743642  .00004008  00000-0  26978-3 0  9999,2 53901  53.2169 232.4310 0001780  86.3265 273.7930 15.08840653 61599,6917.878,95.438,540.975,538.512,0.0
